OBJECT_NAME,OBJECT_ID,EPOCH,MEAN_MOTION,ECCENTRICITY,INCLINATION,RA_OF_ASC_NODE,ARG_OF_PERICENTER,MEAN_ANOMALY,EPHEMERIS_TYPE,CLASSIFICATION_TYPE,NORAD_CAT_ID,ELEMENT_SET_NO,REV_AT_EPOCH,BSTAR,MEAN_MOTION_DOT,MEAN_MOTION_DDOT
STARLINK-31467,2024-049E,2025-04-20T12:45:13.569120,15.27588953,.0001743,43.0015,168.5270,262.2410,97.8243,0,U,59235,999,6298,.69816E-4,.166E-4,0
STARLINK-31444,2024-049F,2025-04-20T09:52:56.388000,15.27577262,.0000876,43.0088,99.7074,184.5858,175.4986,0,U,59236,999,6373,-.18672E-5,-.313E-5,0
STARLINK-31505,2024-049G,2025-04-20T08:12:02.559456,15.27586520,.0002016,43.0046,169.6998,315.8182,44.2509,0,U,59237,999,6295,-.34599E-4,-.1215E-4,0
STARLINK-31494,2024-049H,2025-04-20T15:31:20.829504,15.27589163,.0001806,43.0002,167.6709,261.8618,98.2028,0,U,59238,999,6300,.26807E-4,.476E-5,0
STARLINK-31303,2024-049J,2025-04-20T13:24:31.384512,15.40730422,.0002169,42.9971,159.1631,246.9379,113.1249,0,U,59239,999,6309,-.30698E-6,-.317E-5,0
STARLINK-31408,2024-049K,2025-04-20T13:20:23.463168,15.27595930,.0002404,43.0064,168.7127,250.2695,109.7898,0,U,59240,999,6298,.46315E-4,.1013E-4,0
STARLINK-31427,2024-049L,2025-04-20T13:25:56.166240,15.27582748,.00025,43.0037,168.7089,250.0608,109.9975,0,U,59241,999,6298,.42874E-4,.917E-5,0
STARLINK-31423,2024-049M,2025-04-20T13:16:39.973152,15.27597533,.000292,43.0083,168.6806,254.6553,105.3976,0,U,59242,999,6298,.88546E-4,.2176E-4,0
STARLINK-31433,2024-049N,2025-04-20T14:13:49.797408,15.27583779,.0002725,43.0047,168.1267,250.1775,109.8783,0,U,59243,999,6299,.14298E-3,.3674E-4,0
STARLINK-31285,2024-049P,2025-04-20T12:17:29.959584,15.27563088,.0000541,42.9980,168.3778,260.1703,99.9088,0,U,59244,999,6297,.28487E-3,.7581E-4,0
STARLINK-31268,2024-049Q,2025-04-20T12:10:47.321760,15.27577061,.0001749,43.0007,164.8042,254.2122,105.8537,0,U,59245,999,6301,.15806E-3,.4089E-4,0
STARLINK-31284,2024-049R,2025-04-20T15:42:25.407072,15.27600128,.0002417,43.0052,167.7242,247.8082,112.2513,0,U,59246,999,6299,.1077E-3,.2704E-4,0
STARLINK-31424,2024-049S,2025-04-20T08:05:19.701312,15.27585357,.0001585,43.0035,166.1811,232.6791,127.3916,0,U,59247,999,6298,-.11151E-5,-.293E-5,0
STARLINK-31405,2024-049T,2025-04-20T11:31:26.578272,15.27588007,.000109,43.0032,168.9994,317.0961,42.9805,0,U,59248,999,6296,.90205E-4,.2222E-4,0
STARLINK-31426,2024-049U,2025-04-20T11:36:59.684832,15.27572815,.0000909,43.0031,169.0185,288.4670,71.6083,0,U,59249,999,6296,.20987E-3,.5516E-4,0
STARLINK-31407,2024-049V,2025-04-20T13:22:37.234560,15.40799748,.0001107,43.0017,162.6693,297.6137,62.4607,0,U,59250,999,6303,-.47839E-3,-.203E-3,0
STARLINK-31393,2024-049X,2025-04-20T10:28:13.484352,15.40788230,.0002928,43.0058,160.8671,256.9386,103.1144,0,U,59252,999,6306,-.37863E-3,-.16136E-3,0
STARLINK-31425,2024-049Y,2025-04-20T12:28:35.617152,15.27566142,.0001111,42.9997,168.4316,244.2449,115.8288,0,U,59253,999,6297,.11438E-3,.2885E-4,0
STARLINK-31659,2024-050A,2025-04-20T17:41:08.017440,15.30195519,.0002345,53.1620,238.9022,79.8866,280.2399,0,U,59254,999,6228,.40605E-4,.843E-5,0
STARLINK-31629,2024-050B,2025-04-20T17:52:30.940320,15.30207511,.0001162,53.1608,241.0852,104.1163,255.9967,0,U,59255,999,6110,-.15564E-3,-.4967E-4,0
STARLINK-31652,2024-050C,2025-04-20T19:08:20.540544,15.30194635,.0001086,53.1602,240.7021,107.9208,252.1911,0,U,59256,999,6111,.12777E-4,.19E-6,0
STARLINK-31655,2024-050D,2025-04-20T16:00:59.234400,15.30167279,.0001386,53.1619,203.1982,113.8475,246.2672,0,U,59257,999,6162,-.25008E-3,-.7751E-4,0
STARLINK-31637,2024-050E,2025-04-19T19:28:25.620960,15.30184851,.0000854,53.1613,245.2150,155.3283,204.7759,0,U,59258,999,6096,.13264E-3,.357E-4,0
STARLINK-31506,2024-050F,2025-04-20T20:56:05.991648,15.30168582,.0001615,53.1606,240.4576,44.3544,315.7586,0,U,59259,999,6112,.35981E-3,.10302E-3,0
STARLINK-31288,2024-050G,2025-04-19T18:28:11.714592,15.33395157,.0003444,53.1568,245.6598,348.9732,11.1194,0,U,59260,999,6095,.30442E-2,.100615E-2,0
STARLINK-31639,2024-050H,2025-04-20T17:29:43.914336,15.30200053,.0000918,53.1606,240.9867,119.9845,240.1247,0,U,59261,999,6110,-.1564E-4,-.822E-5,0
STARLINK-31673,2024-050J,2025-04-20T17:41:20.214528,15.41525259,.0007369,53.1579,238.9078,325.5974,34.4554,0,U,59262,999,6113,.5706E-2,.250954E-2,0
STARLINK-31598,2024-050K,2025-04-20T12:23:23.542944,15.30214990,.0001107,53.1590,242.4781,137.1750,222.9338,0,U,59263,999,6106,.1901E-3,.5278E-4,0
STARLINK-31645,2024-050L,2025-04-20T18:03:10.076544,15.30184756,.0001529,53.1606,241.1281,93.3300,266.7876,0,U,59264,999,6110,.33429E-4,.63E-5,0
STARLINK-31646,2024-050M,2025-04-20T19:46:19.941024,15.30200458,.0001336,53.1586,240.8641,89.7216,270.3938,0,U,59265,999,6111,.63073E-3,.18368E-3,0
STARLINK-31648,2024-050N,2025-04-20T17:38:51.373248,15.30191259,.0001226,53.1600,241.0249,100.8995,259.2144,0,U,59266,999,6110,-.11414E-3,-.3737E-4,0
STARLINK-31579,2024-050P,2025-04-19T18:27:47.649600,15.30187206,.0000909,53.1631,245.6584,124.2433,235.8653,0,U,59267,999,6095,.99263E-4,.2581E-4,0
STARLINK-31627,2024-050Q,2025-04-20T12:14:17.130336,15.30215082,.0000914,53.1611,242.4556,101.8023,258.3080,0,U,59268,999,6106,-.58534E-5,-.532E-5,0
STARLINK-31609,2024-050R,2025-04-20T18:07:43.326048,15.30181772,.0001111,53.1617,241.1458,101.4843,258.6282,0,U,59269,999,6110,.70651E-4,.1733E-4,0
STARLINK-31616,2024-050S,2025-04-19T18:46:02.426592,15.30180782,.0001134,53.1596,245.7338,79.0793,281.0336,0,U,59270,999,6095,.94841E-4,.2449E-4,0
STARLINK-31630,2024-050T,2025-04-20T16:54:08.406144,15.30196490,.0001026,53.1597,228.7409,82.5735,277.5382,0,U,59271,999,6127,.34108E-4,.651E-5,0
STARLINK-31623,2024-050U,2025-04-20T12:38:26.849760,15.30196619,.0001189,53.1615,241.8511,98.8022,261.3114,0,U,59272,999,6107,.22941E-4,.32E-5,0
STARLINK-31595,2024-050V,2025-04-20T18:16:30.913824,15.31269162,.0003266,53.1599,241.1938,49.7514,310.3773,0,U,59273,999,6110,.26979E-3,.7905E-4,0
STARLINK-31463,2024-056A,2025-04-20T21:00:44.572896,15.40719468,.0001665,43.0026,254.7087,337.4555,22.6228,0,U,59296,999,6177,-.16856E-3,-.7343E-4,0
STARLINK-31487,2024-056B,2025-04-20T22:00:01.999584,15.35037863,.000144,42.9997,253.8988,290.3194,174.2988,0,U,59297,999,6189,-.32366E-1,-.1034444E-1,0
STARLINK-31386,2024-056C,2025-04-20T15:35:30.874560,15.40697129,.0001638,43.0020,255.5830,236.4181,123.6519,0,U,59298,999,6174,.23419E-5,-.206E-5,0
STARLINK-31409,2024-056D,2025-04-20T19:08:02.456160,15.40714946,.0001509,43.0036,254.9763,279.2083,80.8602,0,U,59299,999,6188,-.10761E-3,-.4798E-4,0
STARLINK-31489,2024-056E,2025-04-20T20:28:27.382080,15.40698221,.0005434,43.0046,254.5369,260.4227,99.6016,0,U,59300,999,6177,.18381E-4,.462E-5,0
STARLINK-31502,2024-056F,2025-04-20T19:36:51.744384,15.40682424,.0004426,43.0097,254.2537,253.1313,106.9059,0,U,59301,999,6177,.68042E-5,-.21E-6,0
STARLINK-31447,2024-056G,2025-04-20T17:05:40.969536,15.40678635,.0002165,43.0028,255.1937,289.8163,70.2460,0,U,59302,999,6175,-.44266E-4,-.2151E-4,0
STARLINK-31504,2024-056H,2025-04-20T18:30:19.053504,15.40008989,.0001902,43.0062,254.7748,249.4859,110.5793,0,U,59303,999,6176,-.21501E-2,-.87091E-3,0
STARLINK-31474,2024-056J,2025-04-20T18:09:57.211488,15.40713479,.0002287,43.0060,254.6685,274.7709,85.2887,0,U,59304,999,6176,-.11118E-3,-.4948E-4,0
STARLINK-31500,2024-056K,2025-04-20T18:35:46.896576,15.40693711,.0001151,43.0008,254.7981,218.2060,141.8715,0,U,59305,999,6176,.13485E-3,.5332E-4,0
STARLINK-31480,2024-056L,2025-04-20T20:22:01.348608,15.40708717,.0001858,43.0010,254.4995,250.3591,109.7065,0,U,59306,999,6177,.92857E-4,.3578E-4,0
STARLINK-31282,2024-056M,2025-04-19T19:06:04.852800,15.40491413,.0003688,43.0037,260.3548,313.3084,46.7465,0,U,59307,999,6161,-.53347E-3,-.22375E-3,0
STARLINK-31485,2024-056N,2025-04-20T22:00:01.999584,15.32991511,.000135,42.9996,253.8847,289.4589,178.3670,0,U,59308,999,591,-.34592E-1,-.1035464E-1,0
STARLINK-31455,2024-056P,2025-04-20T20:44:37.340448,15.40715437,.0001633,43.0032,254.6172,20.7268,339.3654,0,U,59309,999,6177,-.91059E-4,-.4107E-4,0
STARLINK-31475,2024-056Q,2025-04-20T20:47:50.531712,15.40697158,.0000831,43.0015,254.6287,203.8155,156.2663,0,U,59310,999,6189,.2492E-6,-.293E-5,0
STARLINK-31445,2024-056S,2025-04-20T21:14:20.477472,15.27603384,.0002704,43.0021,260.8265,245.3669,114.6901,0,U,59312,999,6170,.17579E-3,.4581E-4,0
STARLINK-31495,2024-056T,2025-04-20T18:00:17.399232,15.40693046,.0002145,43.0049,254.6107,254.4612,105.6008,0,U,59313,999,6176,.1648E-8,-.304E-5,0
STARLINK-31477,2024-056U,2025-04-19T19:41:16.170720,15.40710921,.0001784,43.0044,260.5400,280.2847,79.7808,0,U,59314,999,6161,.41886E-4,.1447E-4,0
STARLINK-31446,2024-056V,2025-04-20T20:31:42.605472,15.40693821,.0000992,43.0026,254.5481,266.3091,93.7652,0,U,59315,999,6177,.26738E-4,.814E-5,0
STARLINK-31479,2024-056W,2025-04-20T20:29:00.128544,15.27589795,.0001717,42.9963,257.9778,181.2591,178.8257,0,U,59316,999,6173,.47077E-4,.1034E-4,0
STARLINK-31349,2024-056X,2025-04-20T18:45:24.365664,15.40734446,.0001599,43.0033,254.8502,240.1807,119.8890,0,U,59317,999,6183,.11816E-3,.4641E-4,0
STARLINK-31464,2024-056Y,2025-04-20T18:51:55.657440,15.40697663,.0001855,43.0004,254.8874,36.7171,323.3812,0,U,59318,999,6176,-.23005E-4,-.1265E-4,0
STARLINK-31402,2024-057A,2025-04-20T13:43:01.468128,15.27612583,.0001376,43.0043,164.2437,272.6585,87.4110,0,U,59320,999,6095,.41225E-3,.1111E-3,0
STARLINK-31578,2024-057B,2025-04-20T16:02:01.629888,15.40681917,.0000946,43.0003,217.6929,224.4829,135.5952,0,U,59321,999,6036,-.88687E-4,-.4003E-4,0
STARLINK-31530,2024-057C,2025-04-20T14:51:14.071968,15.40724640,.0001458,43.0050,218.1866,258.6357,101.4336,0,U,59322,999,6035,-.14353E-3,-.6299E-4,0
STARLINK-31565,2024-057D,2025-04-20T16:59:25.586592,15.28424320,.0002114,43.0016,218.8517,246.7639,113.2990,0,U,59323,999,6035,.73239E-4,.1804E-4,0
STARLINK-31570,2024-057E,2025-04-20T15:36:12.748320,15.40679441,.0001515,43.0027,217.5530,239.9516,120.1190,0,U,59324,999,6036,-.47812E-4,-.2299E-4,0
